{"type": "FeatureCollection", "features": [ {"type": "Feature", "properties": {"norad_id": 37533, "name": "COSMOS 2251 DEB", "group": "cosmos-2251-debris", "lat": 69.01884410854636, "lon": -146.56093314393522, "alt_km": 934.4088161541831, "timestamp": "2025-12-27T18:38:03.875733+00:00", "meta": {"OBJECT_NAME": "COSMOS 2251 DEB", "OBJECT_ID": "1993-036BNN", "EPOCH": "2025-12-27T04:39:49.142592", "MEAN_MOTION": 14.12247382, "ECCENTRICITY": 0.0157567, "INCLINATION": 74.0693, "RA_OF_ASC_NODE": 166.3238, "ARG_OF_PERICENTER": 219.9234, "MEAN_ANOMALY": 139.0235, "EPHEMERIS_TYPE": 0, "CLASSIFICATION_TYPE": "U", "NORAD_CAT_ID": 37533, "ELEMENT_SET_NO": 999, "REV_AT_EPOCH": 63125, "BSTAR": 0.0017596, "MEAN_MOTION_DOT": 3.615e-05, "MEAN_MOTION_DDOT": 0}, "tle": {"line1": "1 37533U 93036BNN 25361.19431878  .00003615  00000+0  17596-2 0  9994", "line2": "2 37533  74.0693 166.3238 0157567 219.9234 139.0235 14.12247382631256"}}, "geometry": {"type": "Point", "coordinates": [-146.56093314393522, 69.01884410854636]}}, {"type": "Feature", "properties": {"norad_id": 37535, "name": "COSMOS 2251 DEB", "group": "cosmos-2251-debris", "lat": -16.138126007368374, "lon": 40.098583335017864, "alt_km": 720.4233254180635, "timestamp": "2025-12-27T18:38:03.875743+00:00", "meta": {"OBJECT_NAME": "COSMOS 2251 DEB", "OBJECT_ID": "1993-036BNQ", "EPOCH": "2025-12-27T12:26:57.154848", "MEAN_MOTION": 14.58550918, "ECCENTRICITY": 0.0026895, "INCLINATION": 74.0236, "RA_OF_ASC_NODE": 45.3445, "ARG_OF_PERICENTER": 181.8861, "MEAN_ANOMALY": 248.6667, "EPHEMERIS_TYPE": 0, "CLASSIFICATION_TYPE": "U", "NORAD_CAT_ID": 37535, "ELEMENT_SET_NO": 999, "REV_AT_EPOCH": 85540, "BSTAR": 0.00071645, "MEAN_MOTION_DOT": 3.32e-05, "MEAN_MOTION_DDOT": 0}, "tle": {"line1": "1 37535U 93036BNQ 25361.51871707  .00003320  00000+0  71645-3 0  9990", "line2": "2 37535  74.0236  45.3445 0026895 181.8861 248.6667 14.58550918855402"}}, "geometry": {"type": "Point", "coordinates": [40.098583335017864, -16.138126007368374]}}, {"type": "Feature", "properties": {"norad_id": 37537, "name": "COSMOS 2251 DEB", "group": "cosmos-2251-debris", "lat": 57.35106089402544, "lon": 30.83144557445987, "alt_km": 770.1328945666637, "timestamp": "2025-12-27T18:38:03.875754+00:00", "meta": {"OBJECT_NAME": "COSMOS 2251 DEB", "OBJECT_ID": "1993-036BNS", "EPOCH": "2025-12-26T23:42:52.766208", "MEAN_MOTION": 14.37510306, "ECCENTRICITY": 0.0050921, "INCLINATION": 74.011, "RA_OF_ASC_NODE": 238.8669, "ARG_OF_PERICENTER": 15.3956, "MEAN_ANOMALY": 344.8732, "EPHEMERIS_TYPE": 0, "CLASSIFICATION_TYPE": "U", "NORAD_CAT_ID": 37537, "ELEMENT_SET_NO": 999, "REV_AT_EPOCH": 85238, "BSTAR": 0.00022011, "MEAN_MOTION_DOT": 6.43e-06, "MEAN_MOTION_DDOT": 0}, "tle": {"line1": "1 37537U 93036BNS 25360.98811072  .00000643  00000+0  22011-3 0  9999", "line2": "2 37537  74.0110 238.8669 0050921  15.3956 344.8732 14.37510306852385"}}, "geometry": {"type": "Point", "coordinates": [30.83144557445987, 57.35106089402544]}}, {"type": "Feature", "properties": {"norad_id": 37546, "name": "COSMOS 2251 DEB", "group": "cosmos-2251-debris", "lat": 17.143091098076958, "lon": 73.3956862900211, "alt_km": 623.2878503944721, "timestamp": "2025-12-27T18:38:03.875764+00:00", "meta": {"OBJECT_NAME": "COSMOS 2251 DEB", "OBJECT_ID": "1993-036BPB", "EPOCH": "2025-12-25T04:56:56.302944", "MEAN_MOTION": 14.80966305, "ECCENTRICITY": 0.0005402, "INCLINATION": 74.0212, "RA_OF_ASC_NODE": 73.3979, "ARG_OF_PERICENTER": 64.6896, "MEAN_ANOMALY": 295.4839, "EPHEMERIS_TYPE": 0, "CLASSIFICATION_TYPE": "U", "NORAD_CAT_ID": 37546, "ELEMENT_SET_NO": 999, "REV_AT_EPOCH": 66072, "BSTAR": 0.0024894, "MEAN_MOTION_DOT": 0.000193, "MEAN_MOTION_DDOT": 0}, "tle": {"line1": "1 37546U 93036BPB 25359.20620721  .00019300  00000+0  24894-2 0  9991", "line2": "2 37546  74.0212  73.3979 0005402  64.6896 295.4839 14.80966305660724"}}, "geometry": {"type": "Point", "coordinates": [73.3956862900211, 17.143091098076958]}}, {"type": "Feature", "properties": {"norad_id": 37959, "name": "COSMOS 2251 DEB", "group": "cosmos-2251-debris", "lat": 63.71852230277187, "lon": 63.78235594875878, "alt_km": 698.2383759910781, "timestamp": "2025-12-27T18:38:03.875785+00:00", "meta": {"OBJECT_NAME": "COSMOS 2251 DEB", "OBJECT_ID": "1993-036BPJ", "EPOCH": "2025-12-27T01:59:43.594944", "MEAN_MOTION": 14.58228434, "ECCENTRICITY": 0.00568255, "INCLINATION": 74.0105, "RA_OF_ASC_NODE": 29.6076, "ARG_OF_PERICENTER": 169.1851, "MEAN_ANOMALY": 222.3398, "EPHEMERIS_TYPE": 0, "CLASSIFICATION_TYPE": "U", "NORAD_CAT_ID": 37959, "ELEMENT_SET_NO": 999, "REV_AT_EPOCH": 80336, "BSTAR": 0.00067581714, "MEAN_MOTION_DOT": 3.161e-05, "MEAN_MOTION_DDOT": 0}, "tle": {"line1": "1 37959U 93036BPJ 25361.08314346  .00003161  00000+0  67582-3 0  9991", "line2": "2 37959  74.0105  29.6076 0056825 169.1851 222.3398 14.58228434803369"}}, "geometry": {"type": "Point", "coordinates": [63.78235594875878, 63.71852230277187]}}, {"type": "Feature", "properties": {"norad_id": 37960, "name": "COSMOS 2251 DEB", "group": "cosmos-2251-debris", "lat": 73.23944637056147, "lon": -127.83392262987503, "alt_km": 857.3342522751982, "timestamp": "2025-12-27T18:38:03.875796+00:00", "meta": {"OBJECT_NAME": "COSMOS 2251 DEB", "OBJECT_ID": "1993-036BPK", "EPOCH": "2025-12-23T05:04:36.493536", "MEAN_MOTION": 14.07887566, "ECCENTRICITY": 0.02481157, "INCLINATION": 74.0591, "RA_OF_ASC_NODE": 168.5402, "ARG_OF_PERICENTER": 184.7073, "MEAN_ANOMALY": 175.1734, "EPHEMERIS_TYPE": 0, "CLASSIFICATION_TYPE": "U", "NORAD_CAT_ID": 37960, "ELEMENT_SET_NO": 999, "REV_AT_EPOCH": 77553, "BSTAR": 0.0007466601, "MEAN_MOTION_DOT": 1.655e-05, "MEAN_MOTION_DDOT": 0}, "tle": {"line1": "1 37960U 93036BPK 25357.21153349  .00001655  00000+0  74666-3 0  9994", "line2": "2 37960  74.0591 168.5402 0248115 184.7073 175.1734 14.07887566775537"}}, "geometry": {"type": "Point", "coordinates": [-127.83392262987503, 73.23944637056147]}}, {"type": "Feature", "properties": {"norad_id": 37961, "name": "COSMOS 2251 DEB", "group": "cosmos-2251-debris", "lat": 48.99540781124952, "lon": -90.69702688234341, "alt_km": 678.5015375167513, "timestamp": "2025-12-27T18:38:03.875806+00:00", "meta": {"OBJECT_NAME": "COSMOS 2251 DEB", "OBJECT_ID": "1993-036BPL", "EPOCH": "2025-12-13T03:18:27.462240", "MEAN_MOTION": 14.57979799, "ECCENTRICITY": 0.00406759, "INCLINATION": 74.0407, "RA_OF_ASC_NODE": 136.3488, "ARG_OF_PERICENTER": 216.8805, "MEAN_ANOMALY": 142.9561, "EPHEMERIS_TYPE": 0, "CLASSIFICATION_TYPE": "U", "NORAD_CAT_ID": 37961, "ELEMENT_SET_NO": 999, "REV_AT_EPOCH": 80071, "BSTAR": 0.001729191, "MEAN_MOTION_DOT": 8.011e-05, "MEAN_MOTION_DDOT": 0}, "tle": {"line1": "1 37961U 93036BPL 25347.13781785  .00008011  00000+0  17292-2 0  9990", "line2": "2 37961  74.0407 136.3488 0040675 216.8805 142.9561 14.57979799800716"}}, "geometry": {"type": "Point", "coordinates": [-90.69702688234341, 48.99540781124952]}}, {"type": "Feature", "properties": {"norad_id": 37966, "name": "COSMOS 2251 DEB", "group": "cosmos-2251-debris", "lat": -19.78490852297113, "lon": -166.69261651637999, "alt_km": 527.7707571717601, "timestamp": "2025-12-27T18:38:03.875816+00:00", "meta": {"OBJECT_NAME": "COSMOS 2251 DEB", "OBJECT_ID": "1993-036BPR", "EPOCH": "2025-12-27T06:02:19.645728", "MEAN_MOTION": 15.14050196, "ECCENTRICITY": 0.0010193, "INCLINATION": 73.9783, "RA_OF_ASC_NODE": 200.334, "ARG_OF_PERICENTER": 64.4117, "MEAN_ANOMALY": 295.8129, "EPHEMERIS_TYPE": 0, "CLASSIFICATION_TYPE": "U", "NORAD_CAT_ID": 37966, "ELEMENT_SET_NO": 999, "REV_AT_EPOCH": 85562, "BSTAR": 0.0030629, "MEAN_MOTION_DOT": 0.00056165, "MEAN_MOTION_DDOT": 0}, "tle": {"line1": "1 37966U 93036BPR 25361.25161627  .00056165  00000+0  30629-2 0  9993", "line2": "2 37966  73.9783 200.3340 0010193  64.4117 295.8129 15.14050196855623"}}, "geometry": {"type": "Point", "coordinates": [-166.69261651637999, -19.78490852297113]}}, {"type": "Feature", "properties": {"norad_id": 37967, "name": "COSMOS 2251 DEB", "group": "cosmos-2251-debris", "lat": 31.84023210777178, "lon": 119.77915647327391, "alt_km": 845.219199152998, "timestamp": "2025-12-27T18:38:03.875827+00:00", "meta": {"OBJECT_NAME": "COSMOS 2251 DEB", "OBJECT_ID": "1993-036BPS", "EPOCH": "2025-12-25T14:48:50.438880", "MEAN_MOTION": 14.4066325, "ECCENTRICITY": 0.0151034, "INCLINATION": 74.0157, "RA_OF_ASC_NODE": 113.525, "ARG_OF_PERICENTER": 249.5941, "MEAN_ANOMALY": 108.8939, "EPHEMERIS_TYPE": 0, "CLASSIFICATION_TYPE": "U", "NORAD_CAT_ID": 37967, "ELEMENT_SET_NO": 999, "REV_AT_EPOCH": 64921, "BSTAR": 0.0020469, "MEAN_MOTION_DOT": 7.459e-05, "MEAN_MOTION_DDOT": 0}, "tle": {"line1": "1 37967U 93036BPS 25359.61725045  .00007459  00000+0  20469-2 0  9994", "line2": "2 37967  74.0157 113.5250 0151034 249.5941 108.8939 14.40663250649214"}}, "geometry": {"type": "Point", "coordinates": [119.77915647327391, 31.84023210777178]}}, {"type": "Feature", "properties": {"norad_id": 37968, "name": "COSMOS 2251 DEB", "group": "cosmos-2251-debris", "lat": -18.486547686971885, "lon": 65.9969405801254, "alt_km": 618.5439470812644, "timestamp": "2025-12-27T18:38:03.875837+00:00", "meta": {"OBJECT_NAME": "COSMOS 2251 DEB", "OBJECT_ID": "1993-036BPT", "EPOCH": "2025-12-26T09:45:16.750368", "MEAN_MOTION": 15.0094224, "ECCENTRICITY": 0.0080595, "INCLINATION": 73.9991, "RA_OF_ASC_NODE": 243.2853, "ARG_OF_PERICENTER": 355.6401, "MEAN_ANOMALY": 4.4073, "EPHEMERIS_TYPE": 0, "CLASSIFICATION_TYPE": "U", "NORAD_CAT_ID": 37968, "ELEMENT_SET_NO": 999, "REV_AT_EPOCH": 60424, "BSTAR": 0.00078163, "MEAN_MOTION_DOT": 0.00010652, "MEAN_MOTION_DDOT": 0}, "tle": {"line1": "1 37968U 93036BPT 25360.40644387  .00010652  00000+0  78163-3 0  9997", "line2": "2 37968  73.9991 243.2853 0080595 355.6401   4.4073 15.00942240604242"}}, "geometry": {"type": "Point", "coordinates": [65.9969405801254, -18.486547686971885]}}]}